[{"OBJECT_NAME":"STARLINK-3615","OBJECT_ID":"2022-017L","EPOCH":"2026-03-09T22:20:27.355488","MEAN_MOTION":15.08837163,"ECCENTRICITY":0.00014802,"INCLINATION":53.2212,"RA_OF_ASC_NODE":327.9103,"ARG_OF_PERICENTER":104.7654,"MEAN_ANOMALY":255.3502,"EPHEMERIS_TYPE":0,"CLASSIFICATION_TYPE":"U","NORAD_CAT_ID":51778,"ELEMENT_SET_NO":999,"REV_AT_EPOCH":22259,"BSTAR":-1.7228108e-5,"MEAN_MOTION_DOT":-5.62e-6,"MEAN_MOTION_DDOT":0},{"OBJECT_NAME":"FENGYUN 1C DEB","OBJECT_ID":"1999-025AHJ","EPOCH":"2026-03-09T18:03:49.415328","MEAN_MOTION":14.96033857,"ECCENTRICITY":0.01248359,"INCLINATION":98.7826,"RA_OF_ASC_NODE":350.0057,"ARG_OF_PERICENTER":174.7814,"MEAN_ANOMALY":185.4738,"EPHEMERIS_TYPE":0,"CLASSIFICATION_TYPE":"U","NORAD_CAT_ID":30496,"ELEMENT_SET_NO":999,"REV_AT_EPOCH":2444,"BSTAR":0.00050780955,"MEAN_MOTION_DOT":6.595e-5,"MEAN_MOTION_DDOT":0}]
